{
  "type": "FeatureCollection",
  "features": [
    {
      "type": "Feature",
      "properties": {
        "norad_id": 66597,
        "name": "STARLINK-35820",
        "group": "last-30-days",
        "lat": 37.209875305131476,
        "lon": -81.60933833817454,
        "alt_km": 439.0648707811979,
        "timestamp": "2025-12-19T14:48:34.963990+00:00",
        "meta_object_name": "STARLINK-35820",
        "meta_object_id": "2025-270K",
        "meta_epoch": "2025-12-18T22:44:37.382496",
        "meta_mean_motion": 15.40711169,
        "meta_eccentricity": 0.00015443,
        "meta_inclination": 42.9988,
        "meta_ra_of_asc_node": 156.8244,
        "meta_arg_of_pericenter": 281.4535,
        "meta_mean_anomaly": 78.6148,
        "meta_ephemeris_type": 0,
        "meta_classification_type": "U",
        "meta_norad_cat_id": 66597,
        "meta_element_set_no": 999,
        "meta_rev_at_epoch": 541,
        "meta_bstar": 0.00029372223,
        "meta_mean_motion_dot": 0.0001199,
        "meta_mean_motion_ddot": 0,
        "tle_line1": "1 66597U 25270K   25352.94765489  .00011990  00000+0  29372-3 0  9993",
        "tle_line2": "2 66597  42.9988 156.8244 0001544 281.4535  78.6148 15.40711169  5416"
      },
      "geometry": {
        "type": "Point",
        "coordinates": [
          -81.60933833817454,
          37.209875305131476
        ]
      }
    },
    {
      "type": "Feature",
      "properties": {
        "norad_id": 66598,
        "name": "STARLINK-35981",
        "group": "last-30-days",
        "lat": -16.43406420062865,
        "lon": -8.790930210647497,
        "alt_km": 444.9849890899932,
        "timestamp": "2025-12-19T14:48:34.964000+00:00",
        "meta_object_name": "STARLINK-35981",
        "meta_object_id": "2025-270L",
        "meta_epoch": "2025-12-19T08:00:01.999872",
        "meta_mean_motion": 15.40668917,
        "meta_eccentricity": 0.00021782,
        "meta_inclination": 42.9994,
        "meta_ra_of_asc_node": 154.3906,
        "meta_arg_of_pericenter": 264.4756,
        "meta_mean_anomaly": 164.5018,
        "meta_ephemeris_type": 0,
        "meta_classification_type": "U",
        "meta_norad_cat_id": 66598,
        "meta_element_set_no": 999,
        "meta_rev_at_epoch": 530,
        "meta_bstar": 0.0012033633,
        "meta_mean_motion_dot": 0.00050245,
        "meta_mean_motion_ddot": 0,
        "tle_line1": "1 66598U 25270L   25353.33335648  .00050245  00000+0  12034-2 0  9990",
        "tle_line2": "2 66598  42.9994 154.3906 0002178 264.4756 164.5018 15.40668917  5303"
      },
      "geometry": {
        "type": "Point",
        "coordinates": [
          -8.790930210647497,
          -16.43406420062865
        ]
      }
    },
    {
      "type": "Feature",
      "properties": {
        "norad_id": 66599,
        "name": "STARLINK-35930",
        "group": "last-30-days",
        "lat": -23.97359640094675,
        "lon": 123.96344556837325,
        "alt_km": 416.01774411738825,
        "timestamp": "2025-12-19T14:48:34.964013+00:00",
        "meta_object_name": "STARLINK-35930",
        "meta_object_id": "2025-270M",
        "meta_epoch": "2025-12-19T04:08:36.625632",
        "meta_mean_motion": 15.50348464,
        "meta_eccentricity": 0.0002903,
        "meta_inclination": 42.9985,
        "meta_ra_of_asc_node": 155.067,
        "meta_arg_of_pericenter": 324.189,
        "meta_mean_anomaly": 35.8775,
        "meta_ephemeris_type": 0,
        "meta_classification_type": "U",
        "meta_norad_cat_id": 66599,
        "meta_element_set_no": 999,
        "meta_rev_at_epoch": 534,
        "meta_bstar": -2.964998e-06,
        "meta_mean_motion_dot": -5.14e-06,
        "meta_mean_motion_ddot": 0,
        "tle_line1": "1 66599U 25270M   25353.17264613 -.00000514  00000+0 -29650-5 0  9997",
        "tle_line2": "2 66599  42.9985 155.0670 0002903 324.1890  35.8775 15.50348464  5346"
      },
      "geometry": {
        "type": "Point",
        "coordinates": [
          123.96344556837325,
          -23.97359640094675
        ]
      }
    },
    {
      "type": "Feature",
      "properties": {
        "norad_id": 66600,
        "name": "STARLINK-35980",
        "group": "last-30-days",
        "lat": -41.00241284840131,
        "lon": 41.53246448953515,
        "alt_km": 445.9670560069271,
        "timestamp": "2025-12-19T14:48:34.964024+00:00",
        "meta_object_name": "STARLINK-35980",
        "meta_object_id": "2025-270N",
        "meta_epoch": "2025-12-19T08:00:01.999872",
        "meta_mean_motion": 15.40672233,
        "meta_eccentricity": 0.00021192,
        "meta_inclination": 42.9998,
        "meta_ra_of_asc_node": 154.2694,
        "meta_arg_of_pericenter": 270.2201,
        "meta_mean_anomaly": 208.5112,
        "meta_ephemeris_type": 0,
        "meta_classification_type": "U",
        "meta_norad_cat_id": 66600,
        "meta_element_set_no": 999,
        "meta_rev_at_epoch": 536,
        "meta_bstar": 0.0011430487,
        "meta_mean_motion_dot": 0.00047701,
        "meta_mean_motion_ddot": 0,
        "tle_line1": "1 66600U 25270N   25353.33335648  .00047701  00000+0  11430-2 0  9996",
        "tle_line2": "2 66600  42.9998 154.2694 0002119 270.2201 208.5112 15.40672233  5365"
      },
      "geometry": {
        "type": "Point",
        "coordinates": [
          41.53246448953515,
          -41.00241284840131
        ]
      }
    },
    {
      "type": "Feature",
      "properties": {
        "norad_id": 66601,
        "name": "STARLINK-35978",
        "group": "last-30-days",
        "lat": 16.832012881547755,
        "lon": -46.06863126099806,
        "alt_km": 441.8357330830695,
        "timestamp": "2025-12-19T14:48:34.964034+00:00",
        "meta_object_name": "STARLINK-35978",
        "meta_object_id": "2025-270P",
        "meta_epoch": "2025-12-19T00:00:02.000160",
        "meta_mean_motion": 15.4067904,
        "meta_eccentricity": 0.00015762,
        "meta_inclination": 42.9991,
        "meta_ra_of_asc_node": 156.4332,
        "meta_arg_of_pericenter": 273.7278,
        "meta_mean_anomaly": 54.5156,
        "meta_ephemeris_type": 0,
        "meta_classification_type": "U",
        "meta_norad_cat_id": 66601,
        "meta_element_set_no": 999,
        "meta_rev_at_epoch": 524,
        "meta_bstar": 0.0012341466,
        "meta_mean_motion_dot": 0.00051563,
        "meta_mean_motion_ddot": 0,
        "tle_line1": "1 66601U 25270P   25353.00002315  .00051563  00000+0  12341-2 0  9996",
        "tle_line2": "2 66601  42.9991 156.4332 0001576 273.7278  54.5156 15.40679040  5247"
      },
      "geometry": {
        "type": "Point",
        "coordinates": [
          -46.06863126099806,
          16.832012881547755
        ]
      }
    },
    {
      "type": "Feature",
      "properties": {
        "norad_id": 66602,
        "name": "STARLINK-36050",
        "group": "last-30-days",
        "lat": 42.19155138622833,
        "lon": -130.33457442828075,
        "alt_km": 437.8592293423653,
        "timestamp": "2025-12-19T14:48:34.964044+00:00",
        "meta_object_name": "STARLINK-36050",
        "meta_object_id": "2025-270Q",
        "meta_epoch": "2025-12-19T03:34:21.922176",
        "meta_mean_motion": 15.40717838,
        "meta_eccentricity": 0.00010464,
        "meta_inclination": 42.9985,
        "meta_ra_of_asc_node": 155.7541,
        "meta_arg_of_pericenter": 281.3711,
        "meta_mean_anomaly": 78.7028,
        "meta_ephemeris_type": 0,
        "meta_classification_type": "U",
        "meta_norad_cat_id": 66602,
        "meta_element_set_no": 999,
        "meta_rev_at_epoch": 523,
        "meta_bstar": 0.0006744634,
        "meta_mean_motion_dot": 0.0002799,
        "meta_mean_motion_ddot": 0,
        "tle_line1": "1 66602U 25270Q   25353.14886484  .00027990  00000+0  67446-3 0  9993",
        "tle_line2": "2 66602  42.9985 155.7541 0001046 281.3711  78.7028 15.40717838  5237"
      },
      "geometry": {
        "type": "Point",
        "coordinates": [
          -130.33457442828075,
          42.19155138622833
        ]
      }
    },
    {
      "type": "Feature",
      "properties": {
        "norad_id": 66603,
        "name": "STARLINK-36048",
        "group": "last-30-days",
        "lat": -8.207504820812723,
        "lon": -18.310127141197864,
        "alt_km": 444.6176102080217,
        "timestamp": "2025-12-19T14:48:34.964057+00:00",
        "meta_object_name": "STARLINK-36048",
        "meta_object_id": "2025-270R",
        "meta_epoch": "2025-12-19T08:00:01.999872",
        "meta_mean_motion": 15.40670921,
        "meta_eccentricity": 0.00014344,
        "meta_inclination": 42.9993,
        "meta_ra_of_asc_node": 154.4207,
        "meta_arg_of_pericenter": 268.6082,
        "meta_mean_anomaly": 147.9238,
        "meta_ephemeris_type": 0,
        "meta_classification_type": "U",
        "meta_norad_cat_id": 66603,
        "meta_element_set_no": 999,
        "meta_rev_at_epoch": 536,
        "meta_bstar": 0.0013336397,
        "meta_mean_motion_dot": 0.0005576,
        "meta_mean_motion_ddot": 0,
        "tle_line1": "1 66603U 25270R   25353.33335648  .00055760  00000+0  13336-2 0  9990",
        "tle_line2": "2 66603  42.9993 154.4207 0001434 268.6082 147.9238 15.40670921  5369"
      },
      "geometry": {
        "type": "Point",
        "coordinates": [
          -18.310127141197864,
          -8.207504820812723
        ]
      }
    }
  ]
}